start=new Date('2022-07-02T00:00:00.000Z').valueOf();
sats=[{"MEAN_MOTION":"15.08856889","FILE":"3506285","TIME_SYSTEM":"UTC","TLE_LINE1":"1 51979U 22025Z   22182.58334491 -.00029820  00000-0 -18624-2 0  9990","MEAN_ELEMENT_THEORY":"SGP4","ELEMENT_SET_NO":"999","MEAN_ANOMALY":"55.9436","EPOCH":"2022-07-01T14:00:01.000224","OBJECT_ID":"2022-025Z","ECCENTRICITY":"0.00019250","SEMIMAJOR_AXIS":"6917.829","OBJECT_TYPE":"PAYLOAD","BSTAR":"-0.00186240000000","REV_AT_EPOCH":"130","EPHEMERIS_TYPE":"0","NORAD_CAT_ID":"51979","PERIOD":"95.436","SITE":"AFETR","OBJECT_NAME":"STARLINK-3656","RCS_SIZE":"LARGE","CLASSIFICATION_TYPE":"U","ARG_OF_PERICENTER":"46.1336","TLE_LINE2":"2 51979  53.2196 326.5138 0001925  46.1336  55.9436 15.08856889  1301","COUNTRY_CODE":"US","LAUNCH_DATE":"2022-03-09","PERIAPSIS":"538.362","RA_OF_ASC_NODE":"326.5138","MEAN_MOTION_DDOT":"0.0000000000000","INCLINATION":"53.2196","MEAN_MOTION_DOT":"-0.00029820","GP_ID":"207210987","CENTER_NAME":"EARTH","DECAY_DATE":null,"REF_FRAME":"TEME","APOAPSIS":"541.025"},{"MEAN_ELEMENT_THEORY":"SGP4","TIME_SYSTEM":"UTC","TLE_LINE1":"1 51980U 22025AA  22182.58334491 -.00023479  00000-0 -14614-2 0  9991","FILE":"3506285","MEAN_MOTION":"15.08853498","OBJECT_TYPE":"PAYLOAD","EPOCH":"2022-07-01T14:00:01.000224","ECCENTRICITY":"0.00014940","SEMIMAJOR_AXIS":"6917.839","OBJECT_ID":"2022-025AA","MEAN_ANOMALY":"152.8953","ELEMENT_SET_NO":"999","ARG_OF_PERICENTER":"69.1774","CLASSIFICATION_TYPE":"U","RCS_SIZE":"LARGE","SITE":"AFETR","OBJECT_NAME":"STARLINK-3649","REV_AT_EPOCH":"130","BSTAR":"-0.00146140000000","PERIOD":"95.437","NORAD_CAT_ID":"51980","EPHEMERIS_TYPE":"0","GP_ID":"207211238","APOAPSIS":"540.738","REF_FRAME":"TEME","DECAY_DATE":null,"CENTER_NAME":"EARTH","MEAN_MOTION_DOT":"-0.00023479","INCLINATION":"53.2155","MEAN_MOTION_DDOT":"0.0000000000000","RA_OF_ASC_NODE":"326.5110","COUNTRY_CODE":"US","TLE_LINE2":"2 51980  53.2155 326.5110 0001494  69.1774 152.8953 15.08853498  1304","PERIAPSIS":"538.671","LAUNCH_DATE":"2022-03-09"},{"EPOCH":"2022-07-01T14:00:01.000224","ECCENTRICITY":"0.00016710","SEMIMAJOR_AXIS":"6917.818","OBJECT_ID":"2022-025AB","MEAN_ANOMALY":"89.5085","ELEMENT_SET_NO":"999","OBJECT_TYPE":"PAYLOAD","FILE":"3506285","MEAN_MOTION":"15.08860295","MEAN_ELEMENT_THEORY":"SGP4","TIME_SYSTEM":"UTC","TLE_LINE1":"1 51981U 22025AB  22182.58334491 -.00026707  00000-0 -16652-2 0  9993","INCLINATION":"53.2141","MEAN_MOTION_DDOT":"0.0000000000000","RA_OF_ASC_NODE":"326.5496","COUNTRY_CODE":"US","TLE_LINE2":"2 51981  53.2141 326.5496 0001671  52.5855  89.5085 15.08860295  1305","PERIAPSIS":"538.527","LAUNCH_DATE":"2022-03-09","GP_ID":"207211489","APOAPSIS":"540.839","REF_FRAME":"TEME","DECAY_DATE":null,"CENTER_NAME":"EARTH","MEAN_MOTION_DOT":"-0.00026707","CLASSIFICATION_TYPE":"U","RCS_SIZE":"LARGE","SITE":"AFETR","OBJECT_NAME":"STARLINK-3635","BSTAR":"-0.00166520000000","REV_AT_EPOCH":"130","PERIOD":"95.436","NORAD_CAT_ID":"51981","EPHEMERIS_TYPE":"0","ARG_OF_PERICENTER":"52.5855"},{"NORAD_CAT_ID":"51982","PERIOD":"95.436","EPHEMERIS_TYPE":"0","BSTAR":"-0.00142220000000","REV_AT_EPOCH":"1879","CLASSIFICATION_TYPE":"U","SITE":"AFETR","RCS_SIZE":"LARGE","OBJECT_NAME":"STARLINK-3650","ARG_OF_PERICENTER":"60.1468","PERIAPSIS":"538.651","LAUNCH_DATE":"2022-03-09","TLE_LINE2":"2 51982  53.2149 326.5092 0001500  60.1468 181.9584 15.08858529 18791","COUNTRY_CODE":"US","INCLINATION":"53.2149","MEAN_MOTION_DDOT":"0.0000000000000","RA_OF_ASC_NODE":"326.5092","MEAN_MOTION_DOT":"-0.00022862","APOAPSIS":"540.726","REF_FRAME":"TEME","CENTER_NAME":"EARTH","DECAY_DATE":null,"GP_ID":"207184522","MEAN_MOTION":"15.08858529","FILE":"3506153","TLE_LINE1":"1 51982U 22025AC  22182.58334491 -.00022862  00000-0 -14222-2 0  9993","TIME_SYSTEM":"UTC","MEAN_ELEMENT_THEORY":"SGP4","MEAN_ANOMALY":"181.9584","ELEMENT_SET_NO":"999","SEMIMAJOR_AXIS":"6917.824","ECCENTRICITY":"0.00015000","OBJECT_ID":"2022-025AC","EPOCH":"2022-07-01T14:00:01.000224","OBJECT_TYPE":"PAYLOAD"},{"MEAN_MOTION_DOT":"-0.00025284","GP_ID":"207210487","REF_FRAME":"TEME","APOAPSIS":"540.774","CENTER_NAME":"EARTH","DECAY_DATE":null,"COUNTRY_CODE":"US","TLE_LINE2":"2 51983  53.2135 326.5393 0001505  57.4150 104.6578 15.08844106  1303","PERIAPSIS":"538.692","LAUNCH_DATE":"2022-03-09","INCLINATION":"53.2135","RA_OF_ASC_NODE":"326.5393","MEAN_MOTION_DDOT":"0.0000000000000","ARG_OF_PERICENTER":"57.4150","BSTAR":"-0.00157590000000","REV_AT_EPOCH":"130","NORAD_CAT_ID":"51983","PERIOD":"95.437","EPHEMERIS_TYPE":"0","CLASSIFICATION_TYPE":"U","SITE":"AFETR","RCS_SIZE":"LARGE","OBJECT_NAME":"STARLINK-3655","OBJECT_TYPE":"PAYLOAD","MEAN_ANOMALY":"104.6578","ELEMENT_SET_NO":"999","EPOCH":"2022-07-01T14:00:01.000224","SEMIMAJOR_AXIS":"6917.868","ECCENTRICITY":"0.00015050","OBJECT_ID":"2022-025AD","TIME_SYSTEM":"UTC","TLE_LINE1":"1 51983U 22025AD  22182.58334491 -.00025284  00000-0 -15759-2 0  9991","MEAN_ELEMENT_THEORY":"SGP4","MEAN_MOTION":"15.08844106","FILE":"3506285"},{"EPOCH":"2022-07-01T14:00:01.000224","ECCENTRICITY":"0.00016620","SEMIMAJOR_AXIS":"6917.785","OBJECT_ID":"2022-025AE","MEAN_ANOMALY":"303.5662","ELEMENT_SET_NO":"999","OBJECT_TYPE":"PAYLOAD","FILE":"3506285","MEAN_MOTION":"15.08871144","MEAN_ELEMENT_THEORY":"SGP4","TIME_SYSTEM":"UTC","TLE_LINE1":"1 51984U 22025AE  22182.58334491 -.00067529  00000-0 -42613-2 0  9999","INCLINATION":"53.2182","RA_OF_ASC_NODE":"326.5047","MEAN_MOTION_DDOT":"0.0000000000000","TLE_LINE2":"2 51984  53.2182 326.5047 0001662  58.5133 303.5662 15.08871144 18796","COUNTRY_CODE":"US","PERIAPSIS":"538.500","LAUNCH_DATE":"2022-03-09","GP_ID":"207211739","APOAPSIS":"540.800","REF_FRAME":"TEME","DECAY_DATE":null,"CENTER_NAME":"EARTH","MEAN_MOTION_DOT":"-0.00067529","CLASSIFICATION_TYPE":"U","SITE":"AFETR","RCS_SIZE":"LARGE","OBJECT_NAME":"STARLINK-3664","REV_AT_EPOCH":"1879","BSTAR":"-0.00426130000000","PERIOD":"95.436","NORAD_CAT_ID":"51984","EPHEMERIS_TYPE":"0","ARG_OF_PERICENTER":"58.5133"},{"MEAN_MOTION_DOT":"-0.00023894","APOAPSIS":"540.780","REF_FRAME":"TEME","CENTER_NAME":"EARTH","DECAY_DATE":null,"GP_ID":"207211990","PERIAPSIS":"538.642","LAUNCH_DATE":"2022-03-09","TLE_LINE2":"2 51985  53.2157 326.5152 0001545  66.6160 135.4731 15.08851277 18789","COUNTRY_CODE":"US","INCLINATION":"53.2157","MEAN_MOTION_DDOT":"0.0000000000000","RA_OF_ASC_NODE":"326.5152","ARG_OF_PERICENTER":"66.6160","NORAD_CAT_ID":"51985","PERIOD":"95.437","EPHEMERIS_TYPE":"0","REV_AT_EPOCH":"1878","BSTAR":"-0.00148770000000","CLASSIFICATION_TYPE":"U","SITE":"AFETR","OBJECT_NAME":"STARLINK-3651","RCS_SIZE":"LARGE","OBJECT_TYPE":"PAYLOAD","MEAN_ANOMALY":"135.4731","ELEMENT_SET_NO":"999","SEMIMAJOR_AXIS":"6917.846","ECCENTRICITY":"0.00015450","OBJECT_ID":"2022-025AF","EPOCH":"2022-07-01T14:00:01.000224","TLE_LINE1":"1 51985U 22025AF  22182.58334491 -.00023894  00000-0 -14877-2 0  9998","TIME_SYSTEM":"UTC","MEAN_ELEMENT_THEORY":"SGP4","MEAN_MOTION":"15.08851277","FILE":"3506285"},{"RA_OF_ASC_NODE":"326.5079","MEAN_MOTION_DDOT":"0.0000000000000","INCLINATION":"53.2193","COUNTRY_CODE":"US","TLE_LINE2":"2 51986  53.2193 326.5079 0001202  64.4420 337.6060 15.08863886  1303","LAUNCH_DATE":"2022-03-09","PERIAPSIS":"538.841","GP_ID":"207210738","CENTER_NAME":"EARTH","DECAY_DATE":null,"REF_FRAME":"TEME","APOAPSIS":"540.504","MEAN_MOTION_DOT":"-0.00030654","RCS_SIZE":"LARGE","SITE":"AFETR","OBJECT_NAME":"STARLINK-3645","CLASSIFICATION_TYPE":"U","BSTAR":"-0.00191490000000","REV_AT_EPOCH":"130","EPHEMERIS_TYPE":"0","NORAD_CAT_ID":"51986","PERIOD":"95.436","ARG_OF_PERICENTER":"64.4420","EPOCH":"2022-07-01T14:00:01.000224","OBJECT_ID":"2022-025AG","SEMIMAJOR_AXIS":"6917.807","ECCENTRICITY":"0.00012020","ELEMENT_SET_NO":"999","MEAN_ANOMALY":"337.6060","OBJECT_TYPE":"PAYLOAD","FILE":"3506285","MEAN_MOTION":"15.08863886","MEAN_ELEMENT_THEORY":"SGP4","TIME_SYSTEM":"UTC","TLE_LINE1":"1 51986U 22025AG  22182.58334491 -.00030654  00000-0 -19149-2 0  9998"},{"ARG_OF_PERICENTER":"60.4253","EPHEMERIS_TYPE":"0","PERIOD":"95.437","NORAD_CAT_ID":"51987","BSTAR":"-0.00159250000000","REV_AT_EPOCH":"1878","OBJECT_NAME":"STARLINK-3644","SITE":"AFETR","RCS_SIZE":"LARGE","CLASSIFICATION_TYPE":"U","MEAN_MOTION_DOT":"-0.00025548","DECAY_DATE":null,"CENTER_NAME":"EARTH","APOAPSIS":"540.839","REF_FRAME":"TEME","GP_ID":"207184604","LAUNCH_DATE":"2022-03-09","PERIAPSIS":"538.614","COUNTRY_CODE":"US","TLE_LINE2":"2 51987  53.2181 326.5057 0001608  60.4253 261.6686 15.08846122 18781","RA_OF_ASC_NODE":"326.5057","MEAN_MOTION_DDOT":"0.0000000000000","INCLINATION":"53.2181","TLE_LINE1":"1 51987U 22025AH  22182.58334491 -.00025548  00000-0 -15925-2 0  9993","TIME_SYSTEM":"UTC","MEAN_ELEMENT_THEORY":"SGP4","MEAN_MOTION":"15.08846122","FILE":"3506155","OBJECT_TYPE":"PAYLOAD","ELEMENT_SET_NO":"999","MEAN_ANOMALY":"261.6686","OBJECT_ID":"2022-025AH","SEMIMAJOR_AXIS":"6917.862","ECCENTRICITY":"0.00016080","EPOCH":"2022-07-01T14:00:01.000224"},{"OBJECT_NAME":"STARLINK-3640","SITE":"AFETR","RCS_SIZE":"LARGE","CLASSIFICATION_TYPE":"U","EPHEMERIS_TYPE":"0","NORAD_CAT_ID":"51988","PERIOD":"95.437","BSTAR":"-0.00185920000000","REV_AT_EPOCH":"130","ARG_OF_PERICENTER":"65.4049","MEAN_MOTION_DDOT":"0.0000000000000","RA_OF_ASC_NODE":"326.5064","INCLINATION":"53.2192","LAUNCH_DATE":"2022-03-09","PERIAPSIS":"538.673","TLE_LINE2":"2 51988  53.2192 326.5064 0001478  65.4049 356.6681 15.08856225  1300","COUNTRY_CODE":"US","CENTER_NAME":"EARTH","DECAY_DATE":null,"REF_FRAME":"TEME","APOAPSIS":"540.718","GP_ID":"207211239","MEAN_MOTION_DOT":"-0.00029768","FILE":"3506285","MEAN_MOTION":"15.08856225","MEAN_ELEMENT_THEORY":"SGP4","TLE_LINE1":"1 51988U 22025AJ  22182.58334491 -.00029768  00000-0 -18592-2 0  9995","TIME_SYSTEM":"UTC","OBJECT_ID":"2022-025AJ","SEMIMAJOR_AXIS":"6917.831","ECCENTRICITY":"0.00014780","EPOCH":"2022-07-01T14:00:01.000224","ELEMENT_SET_NO":"999","MEAN_ANOMALY":"356.6681","OBJECT_TYPE":"PAYLOAD"}];
